[{"OBJECT_NAME":"GPS BIIF-4","OBJECT_ID":"2013-023A","EPOCH":"2026-03-31T21:41:02.271264","MEAN_MOTION":2.00563989,"ECCENTRICITY":0.0141962,"INCLINATION":54.5658,"RA_OF_ASC_NODE":272.1198,"ARG_OF_PERICENTER":50.3418,"MEAN_ANOMALY":310.8851,"EPHEMERIS_TYPE":0,"CLASSIFICATION_TYPE":"U","NORAD_CAT_ID":39166,"ELEMENT_SET_NO":999,"REV_AT_EPOCH":9433,"BSTAR":0,"MEAN_MOTION_DOT":-3.4e-7,"MEAN_MOTION_DDOT":0},{"OBJECT_NAME":"INSAT-3D","OBJECT_ID":"2013-038B","EPOCH":"2026-04-01T11:48:52.524576","MEAN_MOTION":1.00267639,"ECCENTRICITY":0.0001482,"INCLINATION":1.7286,"RA_OF_ASC_NODE":83.5034,"ARG_OF_PERICENTER":256.8368,"MEAN_ANOMALY":156.2255,"EPHEMERIS_TYPE":0,"CLASSIFICATION_TYPE":"U","NORAD_CAT_ID":39216,"ELEMENT_SET_NO":999,"REV_AT_EPOCH":4631,"BSTAR":0,"MEAN_MOTION_DOT":-3.47e-6,"MEAN_MOTION_DDOT":0},{"OBJECT_NAME":"GPS BIIF-5","OBJECT_ID":"2014-008A","EPOCH":"2026-04-01T09:38:46.169664","MEAN_MOTION":2.00554869,"ECCENTRICITY":0.0083202,"INCLINATION":53.6402,"RA_OF_ASC_NODE":152.4525,"ARG_OF_PERICENTER":229.3061,"MEAN_ANOMALY":130.0456,"EPHEMERIS_TYPE":0,"CLASSIFICATION_TYPE":"U","NORAD_CAT_ID":39533,"ELEMENT_SET_NO":999,"REV_AT_EPOCH":8814,"BSTAR":0,"MEAN_MOTION_DOT":3.6e-7,"MEAN_MOTION_DDOT":0},{"OBJECT_NAME":"LUCH 5V","OBJECT_ID":"2014-023A","EPOCH":"2026-04-01T11:38:53.483136","MEAN_MOTION":1.00271218,"ECCENTRICITY":0.0002684,"INCLINATION":4.9457,"RA_OF_ASC_NODE":70.4945,"ARG_OF_PERICENTER":310.6243,"MEAN_ANOMALY":78.1887,"EPHEMERIS_TYPE":0,"CLASSIFICATION_TYPE":"U","NORAD_CAT_ID":39727,"ELEMENT_SET_NO":999,"REV_AT_EPOCH":4359,"BSTAR":0,"MEAN_MOTION_DOT":-2.74e-6,"MEAN_MOTION_DDOT":0},{"OBJECT_NAME":"GPS BIIF-6","OBJECT_ID":"2014-026A","EPOCH":"2026-04-01T04:19:11.572320","MEAN_MOTION":2.00566702,"ECCENTRICITY":0.0039432,"INCLINATION":56.5333,"RA_OF_ASC_NODE":334.5171,"ARG_OF_PERICENTER":325.9389,"MEAN_ANOMALY":33.8581,"EPHEMERIS_TYPE":0,"CLASSIFICATION_TYPE":"U","NORAD_CAT_ID":39741,"ELEMENT_SET_NO":999,"REV_AT_EPOCH":8699,"BSTAR":0,"MEAN_MOTION_DOT":-8.8e-7,"MEAN_MOTION_DDOT":0},{"OBJECT_NAME":"GPS BIIF-7","OBJECT_ID":"2014-045A","EPOCH":"2026-04-01T06:27:45.787680","MEAN_MOTION":2.00553375,"ECCENTRICITY":0.0031386,"INCLINATION":55.3019,"RA_OF_ASC_NODE":91.5273,"ARG_OF_PERICENTER":119.8384,"MEAN_ANOMALY":240.4974,"EPHEMERIS_TYPE":0,"CLASSIFICATION_TYPE":"U","NORAD_CAT_ID":40105,"ELEMENT_SET_NO":999,"REV_AT_EPOCH":8453,"BSTAR":0,"MEAN_MOTION_DOT":2.1e-7,"MEAN_MOTION_DDOT":0},{"OBJECT_NAME":"GSAT0201 (GALILEO 5)","OBJECT_ID":"2014-050A","EPOCH":"2026-03-29T15:31:43.881024","MEAN_MOTION":1.85519989,"ECCENTRICITY":0.1661829,"INCLINATION":48.9626,"RA_OF_ASC_NODE":276.691,"ARG_OF_PERICENTER":176.2929,"MEAN_ANOMALY":185.1058,"EPHEMERIS_TYPE":0,"CLASSIFICATION_TYPE":"U","NORAD_CAT_ID":40128,"ELEMENT_SET_NO":999,"REV_AT_EPOCH":7684,"BSTAR":0,"MEAN_MOTION_DOT":-3.3e-7,"MEAN_MOTION_DDOT":0},{"OBJECT_NAME":"GSAT0202 (GALILEO 6)","OBJECT_ID":"2014-050B","EPOCH":"2026-03-29T21:40:06.798144","MEAN_MOTION":1.85520679,"ECCENTRICITY":0.1662861,"INCLINATION":48.98,"RA_OF_ASC_NODE":275.7652,"ARG_OF_PERICENTER":177.0373,"MEAN_ANOMALY":184.0793,"EPHEMERIS_TYPE":0,"CLASSIFICATION_TYPE":"U","NORAD_CAT_ID":40129,"ELEMENT_SET_NO":999,"REV_AT_EPOCH":7901,"BSTAR":0,"MEAN_MOTION_DOT":-3.5e-7,"MEAN_MOTION_DDOT":0},{"OBJECT_NAME":"GPS BIIF-8","OBJECT_ID":"2014-068A","EPOCH":"2026-04-01T03:29:06.664992","MEAN_MOTION":2.0057154,"ECCENTRICITY":0.0064104,"INCLINATION":56.9382,"RA_OF_ASC_NODE":33.9232,"ARG_OF_PERICENTER":68.3135,"MEAN_ANOMALY":292.3462,"EPHEMERIS_TYPE":0,"CLASSIFICATION_TYPE":"U","NORAD_CAT_ID":40294,"ELEMENT_SET_NO":999,"REV_AT_EPOCH":8366,"BSTAR":0,"MEAN_MOTION_DOT":-9.5e-7,"MEAN_MOTION_DDOT":0},{"OBJECT_NAME":"GLONASS-K 2","OBJECT_ID":"2014-075A","EPOCH":"2026-03-25T07:16:41.300256","MEAN_MOTION":2.13101287,"ECCENTRICITY":0.00211828,"INCLINATION":63.6158,"RA_OF_ASC_NODE":193.2737,"ARG_OF_PERICENTER":207.3153,"MEAN_ANOMALY":152.5805,"EPHEMERIS_TYPE":0,"CLASSIFICATION_TYPE":"U","NORAD_CAT_ID":40315,"ELEMENT_SET_NO":999,"REV_AT_EPOCH":8806,"BSTAR":0,"MEAN_MOTION_DOT":1.0e-8,"MEAN_MOTION_DDOT":0},{"OBJECT_NAME":"GPS BIIF-9","OBJECT_ID":"2015-013A","EPOCH":"2026-03-31T18:42:19.808352","MEAN_MOTION":2.00555949,"ECCENTRICITY":0.01088241,"INCLINATION":53.1801,"RA_OF_ASC_NODE":207.3783,"ARG_OF_PERICENTER":39.933,"MEAN_ANOMALY":320.8357,"EPHEMERIS_TYPE":0,"CLASSIFICATION_TYPE":"U","NORAD_CAT_ID":40534,"ELEMENT_SET_NO":999,"REV_AT_EPOCH":8027,"BSTAR":0,"MEAN_MOTION_DOT":-3.2e-7,"MEAN_MOTION_DDOT":0},{"OBJECT_NAME":"GSAT0203 (GALILEO 7)","OBJECT_ID":"2015-017A","EPOCH":"2026-03-27T16:15:59.650272","MEAN_MOTION":1.70475469,"ECCENTRICITY":0.0003036,"INCLINATION":56.8123,"RA_OF_ASC_NODE":343.8202,"ARG_OF_PERICENTER":318.8222,"MEAN_ANOMALY":41.1887,"EPHEMERIS_TYPE":0,"CLASSIFICATION_TYPE":"U","NORAD_CAT_ID":40544,"ELEMENT_SET_NO":999,"REV_AT_EPOCH":6781,"BSTAR":0,"MEAN_MOTION_DOT":-9.7e-7,"MEAN_MOTION_DDOT":0},{"OBJECT_NAME":"GSAT0204 (GALILEO 8)","OBJECT_ID":"2015-017B","EPOCH":"2026-03-31T10:52:08.488128","MEAN_MOTION":1.7047557,"ECCENTRICITY":0.00033073,"INCLINATION":56.8177,"RA_OF_ASC_NODE":343.7349,"ARG_OF_PERICENTER":290.1581,"MEAN_ANOMALY":69.8477,"EPHEMERIS_TYPE":0,"CLASSIFICATION_TYPE":"U","NORAD_CAT_ID":40545,"ELEMENT_SET_NO":999,"REV_AT_EPOCH":3092,"BSTAR":0,"MEAN_MOTION_DOT":-9.9e-7,"MEAN_MOTION_DDOT":0},{"OBJECT_NAME":"GPS BIIF-10","OBJECT_ID":"2015-033A","EPOCH":"2026-03-31T22:32:45.142368","MEAN_MOTION":2.00560219,"ECCENTRICITY":0.0114899,"INCLINATION":54.0443,"RA_OF_ASC_NODE":270.269,"ARG_OF_PERICENTER":29.5248,"MEAN_ANOMALY":331.0975,"EPHEMERIS_TYPE":0,"CLASSIFICATION_TYPE":"U","NORAD_CAT_ID":40730,"ELEMENT_SET_NO":999,"REV_AT_EPOCH":7844,"BSTAR":0,"MEAN_MOTION_DOT":-3.5e-7,"MEAN_MOTION_DDOT":0},{"OBJECT_NAME":"METEOSAT-11 (MSG-4)","OBJECT_ID":"2015-034A","EPOCH":"2026-04-01T07:49:08.019264","MEAN_MOTION":1.00274921,"ECCENTRICITY":0.0001761,"INCLINATION":3.0084,"RA_OF_ASC_NODE":71.512,"ARG_OF_PERICENTER":284.9559,"MEAN_ANOMALY":319.761,"EPHEMERIS_TYPE":0,"CLASSIFICATION_TYPE":"U","NORAD_CAT_ID":40732,"ELEMENT_SET_NO":999,"REV_AT_EPOCH":644,"BSTAR":0,"MEAN_MOTION_DOT":5.5e-7,"MEAN_MOTION_DDOT":0},{"OBJECT_NAME":"GSAT0205 (GALILEO 9)","OBJECT_ID":"2015-045A","EPOCH":"2026-03-29T18:04:40.437984","MEAN_MOTION":1.67410692,"ECCENTRICITY":0.00039858,"INCLINATION":54.9725,"RA_OF_ASC_NODE":223.8882,"ARG_OF_PERICENTER":271.0608,"MEAN_ANOMALY":88.8305,"EPHEMERIS_TYPE":0,"CLASSIFICATION_TYPE":"U","NORAD_CAT_ID":40889,"ELEMENT_SET_NO":999,"REV_AT_EPOCH":6563,"BSTAR":0,"MEAN_MOTION_DOT":-2.9e-7,"MEAN_MOTION_DDOT":0},{"OBJECT_NAME":"GSAT0206 (GALILEO 10)","OBJECT_ID":"2015-045B","EPOCH":"2026-03-31T10:35:49.174368","MEAN_MOTION":1.70473851,"ECCENTRICITY":0.00029174,"INCLINATION":54.9707,"RA_OF_ASC_NODE":223.7491,"ARG_OF_PERICENTER":47.7837,"MEAN_ANOMALY":312.1782,"EPHEMERIS_TYPE":0,"CLASSIFICATION_TYPE":"U","NORAD_CAT_ID":40890,"ELEMENT_SET_NO":999,"REV_AT_EPOCH":6571,"BSTAR":0,"MEAN_MOTION_DOT":-2.8e-7,"MEAN_MOTION_DDOT":0}]
